GLOBALSTAR M001         
1 25162U 98008A   24165.61265468 -.00000064  00000+0  25018-3 0  9996
2 25162  52.0049 325.9692 0001858 164.5532 274.2696 12.38185433198059
GLOBALSTAR M004         
1 25163U 98008B   24165.58445348 -.00000062  00000+0  23099-3 0  9995
2 25163  51.9996  98.6415 0002554 186.1988 344.4597 12.63361830215094
GLOBALSTAR M002         
1 25164U 98008C   24165.49432499 -.00000106  00000+0 -57641-3 0  9999
2 25164  52.0019  84.6327 0000830 172.1658 187.9175 11.61502478141221
GLOBALSTAR M003         
1 25165U 98008D   24165.60157395  .00000050  00000+0  14873-2 0  9997
2 25165  51.9869 109.3575 0007724 273.4871 257.6734 12.12010186188521
GLOBALSTAR M014         
1 25306U 98023A   24165.58847535 -.00000053  00000+0  45153-3 0  9990
2 25306  51.9865  15.3717 0001604  59.9914 336.7009 11.65468286148192
GLOBALSTAR M006         
1 25307U 98023B   24165.45749149 -.00000072  00000+0  75465-4 0  9990
2 25307  51.9959  54.3944 0003669 150.3859  20.4385 11.58165087174108
GLOBALSTAR M015         
1 25308U 98023C   24165.42685872 -.00000058  00000+0  34552-3 0  9995
2 25308  51.9791 136.0395 0012280 140.6288   6.4110 11.48853098151692
GLOBALSTAR M008         
1 25309U 98023D   24165.59395162 -.00000075  00000+0  16770-3 0  9995
2 25309  51.9940 186.6783 0002537 121.6980  27.2761 12.36044189192265
